NORAD_CAT_ID,OBJECT_NAME,OBJECT_TYPE,EPOCH,MEAN_MOTION,ECCENTRICITY,INCLINATION,RA_OF_ASC_NODE,ARG_OF_PERICENTER,MEAN_ANOMALY,BSTAR,MEAN_MOTION_DOT,MEAN_MOTION_DDOT,TLE_LINE0,TLE_LINE1,TLE_LINE2,SEMIMAJOR_AXIS,PERIOD,APOGEE,PERIGEE,DECAYED
52379.0,STARLINK-3800,PAYLOAD,2023-05-30 22:29:22,15.08847101,8.55e-05,53.2181,60.0299,90.1805,269.9285,3.8894e-05,3.31e-06,0.0,0 STARLINK-3800,1 52379U 22045BA  23150.93706745  .00000331  00000-0  38894-4 0  9994,2 52379  53.2181  60.0299 0000855  90.1805 269.9285 15.08847101 62885,6917.859,95.437,540.315,539.132,0.0
52379.0,STARLINK-3800,PAYLOAD,2023-05-31 03:15:31,15.08856148,9.44e-05,53.2184,59.1372,85.4439,274.6661,0.00012009,1.625e-05,0.0,0 STARLINK-3800,1 52379U 22045BA  23151.13578032  .00001625  00000-0  12009-3 0  9999,2 52379  53.2184  59.1372 0000944  85.4439 274.6661 15.08856148 62914,6917.831,95.437,540.349,539.043,0.0
52379.0,STARLINK-3800,PAYLOAD,2023-05-31 22:20:09,15.08841505,0.0001086,53.2181,55.568,89.7361,270.3756,0.00014269,1.984e-05,0.0,0 STARLINK-3800,1 52379U 22045BA  23151.93067090  .00001984  00000-0  14269-3 0  9992,2 52379  53.2181  55.5680 0001086  89.7361 270.3756 15.08841505 63035,6917.876,95.437,540.492,538.99,0.0
52379.0,STARLINK-3800,PAYLOAD,2023-05-31 23:55:33,15.08841544,0.0001006,53.2185,55.2699,96.22,263.8907,0.0001424,1.979e-05,0.0,0 STARLINK-3800,1 52379U 22045BA  23151.99691068  .00001979  00000-0  14240-3 0  9999,2 52379  53.2185  55.2699 0001006  96.2200 263.8907 15.08841544 63042,6917.876,95.437,540.437,539.045,0.0
52379.0,STARLINK-3800,PAYLOAD,2023-06-01 03:06:19,15.08846592,0.0001128,53.2182,54.675,97.8681,262.2439,0.00020899,3.04e-05,0.0,0 STARLINK-3800,1 52379U 22045BA  23152.12938833  .00003040  00000-0  20899-3 0  9997,2 52379  53.2182  54.6750 0001128  97.8681 262.2439 15.08846592 63068,6917.86,95.437,540.506,538.945,0.0
52379.0,STARLINK-3800,PAYLOAD,2023-06-02 02:57:06,15.08841072,0.0001275,53.2183,50.2134,102.6262,257.4873,-2.7272e-05,-7.22e-06,0.0,0 STARLINK-3800,1 52379U 22045BA  23153.12299098 -.00000722  00000-0 -27272-4 0  9990,2 52379  53.2183  50.2134 0001275 102.6262 257.4873 15.08841072 63213,6917.877,95.437,540.624,538.86,0.0
52379.0,STARLINK-3800,PAYLOAD,2023-06-02 22:01:44,15.08843156,0.0001489,53.2192,46.6437,111.4644,248.6507,-8.7703e-05,-1.684e-05,0.0,0 STARLINK-3800,1 52379U 22045BA  23153.91787568 -.00001684  00000-0 -87703-4 0  9994,2 52379  53.2192  46.6437 0001489 111.4644 248.6507 15.08843156 63331,6917.871,95.437,540.766,538.706,0.0
52379.0,STARLINK-3800,PAYLOAD,2023-06-03 02:47:54,15.08838143,0.0001284,53.2187,45.7547,90.924,269.1899,-5.4384e-05,-1.153e-05,0.0,0 STARLINK-3800,1 52379U 22045BA  23154.11659877 -.00001153  00000-0 -54384-4 0  9998,2 52379  53.2187  45.7547 0001284  90.9240 269.1899 15.08838143 63368,6917.886,95.438,540.639,538.863,0.0
52379.0,STARLINK-3800,PAYLOAD,2023-06-03 21:52:31,15.08843243,0.000117,53.2187,42.1889,94.4486,265.664,7.7531e-05,9.46e-06,0.0,0 STARLINK-3800,1 52379U 22045BA  23154.91147394  .00000946  00000-0  77531-4 0  9998,2 52379  53.2187  42.1889 0001170  94.4486 265.6640 15.08843243 63488,6917.87,95.437,540.545,538.926,0.0
52379.0,STARLINK-3800,PAYLOAD,2023-06-03 23:27:54,15.08846372,0.0001123,53.2185,41.8918,94.564,265.5481,0.00010586,1.398e-05,0.0,0 STARLINK-3800,1 52379U 22045BA  23154.97771131  .00001398  00000-0  10586-3 0  9994,2 52379  53.2185  41.8918 0001123  94.5640 265.5481 15.08846372 63495,6917.861,95.437,540.503,538.949,0.0
52379.0,STARLINK-3800,PAYLOAD,2023-06-04 21:43:18,15.08838106,0.0001219,53.2193,37.7339,107.2668,252.8457,5.1652e-05,5.34e-06,0.0,0 STARLINK-3800,1 52379U 22045BA  23155.90507972  .00000534  00000-0  51652-4 0  9999,2 52379  53.2193  37.7339 0001219 107.2668 252.8457 15.08838106 63637,6917.886,95.438,540.594,538.908,0.0
52379.0,STARLINK-3800,PAYLOAD,2023-06-05 02:29:27,15.08842142,0.0001044,53.2183,36.8373,92.105,268.0062,9.7777e-05,1.269e-05,0.0,0 STARLINK-3800,1 52379U 22045BA  23156.10379581  .00001269  00000-0  97777-4 0  9999,2 52379  53.2183  36.8373 0001044  92.1050 268.0062 15.08842142 63666,6917.874,95.437,540.461,539.017,0.0
52379.0,STARLINK-3800,PAYLOAD,2023-06-05 19:58:42,15.08845607,9.46e-05,53.2184,33.5657,99.3943,260.7156,-5.9835e-05,-1.24e-05,0.0,0 STARLINK-3800,1 52379U 22045BA  23156.83243892 -.00001240  00000-0 -59835-4 0  9998,2 52379  53.2184  33.5657 0000946  99.3943 260.7156 15.08845607 63770,6917.863,95.437,540.383,539.074,0.0
52379.0,STARLINK-3800,PAYLOAD,2023-06-06 00:44:51,15.08847023,0.000101,53.2185,32.6736,97.4477,262.663,6.6238e-06,-1.82e-06,0.0,0 STARLINK-3800,1 52379U 22045BA  23157.03115544 -.00000182  00000-0  66238-5 0  9992,2 52379  53.2185  32.6736 0001010  97.4477 262.6630 15.08847023 63809,6917.859,95.437,540.423,539.025,0.0
52379.0,STARLINK-3800,PAYLOAD,2023-06-06 08:41:48,15.08837371,0.0001089,53.2191,31.1865,87.0415,273.0702,2.6984e-05,1.42e-06,0.0,0 STARLINK-3800,1 52379U 22045BA  23157.36236129  .00000142  00000-0  26984-4 0  9999,2 52379  53.2191  31.1865 0001089  87.0415 273.0702 15.08837371 63852,6917.888,95.438,540.507,539.0,0.0
52379.0,STARLINK-3800,PAYLOAD,2023-06-07 00:35:39,15.08843246,0.0001168,53.2189,28.2125,98.3494,261.763,5.8052e-05,6.36e-06,0.0,0 STARLINK-3800,1 52379U 22045BA  23158.02475726  .00000636  00000-0  58052-4 0  9990,2 52379  53.2189  28.2125 0001168  98.3494 261.7630 15.08843246 63958,6917.87,95.437,540.543,538.927,0.0
52379.0,STARLINK-3800,PAYLOAD,2023-06-07 14:54:07,15.08834031,0.0001117,53.2192,25.5367,95.1649,264.947,3.5611e-05,2.79e-06,0.0,0 STARLINK-3800,1 52379U 22045BA  23158.62092531  .00000279  00000-0  35611-4 0  9994,2 52379  53.2192  25.5367 0001117  95.1649 264.9470 15.08834031 64041,6917.899,95.438,540.536,538.991,0.0
52379.0,STARLINK-3800,PAYLOAD,2023-06-07 21:15:40,15.08837127,0.0001097,53.2196,24.3475,91.3657,268.7461,3.1833e-05,2.19e-06,0.0,0 STARLINK-3800,1 52379U 22045BA  23158.88588476  .00000219  00000-0  31833-4 0  9996,2 52379  53.2196  24.3475 0001097  91.3657 268.7461 15.08837127 64081,6917.889,95.438,540.513,538.995,0.0
52379.0,STARLINK-3800,PAYLOAD,2023-06-08 14:44:54,15.08840165,8.53e-05,53.2193,21.0768,85.8717,274.2372,0.00011651,1.567e-05,0.0,0 STARLINK-3800,1 52379U 22045BA  23159.61452066  .00001567  00000-0  11651-3 0  9995,2 52379  53.2193  21.0768 0000853  85.8717 274.2372 15.08840165 64192,6917.88,95.438,540.335,539.155,0.0
52379.0,STARLINK-3800,PAYLOAD,2023-06-09 00:17:12,15.08856235,8.35e-05,53.219,19.292,83.471,276.6377,0.00010368,1.363e-05,0.0,0 STARLINK-3800,1 52379U 22045BA  23160.01195083  .00001363  00000-0  10368-3 0  9992,2 52379  53.2190  19.2920 0000835  83.4710 276.6377 15.08856235 64258,6917.831,95.437,540.273,539.118,0.0
52379.0,STARLINK-3800,PAYLOAD,2023-06-09 08:14:08,15.08847894,0.0001002,53.2181,17.8072,78.6986,281.4118,5.8771e-05,6.48e-06,0.0,0 STARLINK-3800,1 52379U 22045BA  23160.34315647  .00000648  00000-0  58771-4 0  9994,2 52379  53.2181  17.8072 0001002  78.6986 281.4118 15.08847894 64302,6917.856,95.437,540.414,539.028,0.0
52379.0,STARLINK-3800,PAYLOAD,2023-06-10 00:08:00,15.0884036,0.0001185,53.2187,14.8318,95.3056,264.8072,0.00010284,1.349e-05,0.0,0 STARLINK-3800,1 52379U 22045BA  23161.00556361  .00001349  00000-0  10284-3 0  9993,2 52379  53.2187  14.8318 0001185  95.3056 264.8072 15.08840360 64400,6917.879,95.438,540.564,538.925,0.0
52379.0,STARLINK-3800,PAYLOAD,2023-06-10 12:51:05,15.08843361,0.000118,53.2188,12.4522,100.116,259.9966,2.3382e-06,-2.51e-06,0.0,0 STARLINK-3800,1 52379U 22045BA  23161.53548465 -.00000251  00000-0  23382-5 0  9994,2 52379  53.2188  12.4522 0001180 100.1160 259.9966 15.08843361 64487,6917.87,95.437,540.551,538.919,0.0
52379.0,STARLINK-3800,PAYLOAD,2023-06-10 20:48:01,15.08846834,0.0001129,53.2185,10.9661,82.9982,277.1139,3.9879e-05,3.47e-06,0.0,0 STARLINK-3800,1 52379U 22045BA  23161.86668158  .00000347  00000-0  39879-4 0  9994,2 52379  53.2185  10.9661 0001129  82.9982 277.1139 15.08846834 64531,6917.86,95.437,540.506,538.943,0.0
52379.0,STARLINK-3800,PAYLOAD,2023-06-11 06:20:20,15.08842298,0.0001175,53.2178,9.1814,81.0444,279.0681,4.1526e-05,3.73e-06,0.0,0 STARLINK-3800,1 52379U 22045BA  23162.26412335  .00000373  00000-0  41526-4 0  9994,2 52379  53.2178   9.1814 0001175  81.0444 279.0681 15.08842298 64596,6917.873,95.437,540.551,538.926,0.0
52379.0,STARLINK-3800,PAYLOAD,2023-06-11 14:17:15,15.08842611,0.0001288,53.2177,7.6943,82.4064,277.7075,-4.5807e-05,-1.017e-05,0.0,0 STARLINK-3800,1 52379U 22045BA  23162.59532374 -.00001017  00000-0 -45807-4 0  9990,2 52379  53.2177   7.6943 0001288  82.4064 277.7075 15.08842611 64646,6917.872,95.437,540.628,538.846,0.0
52379.0,STARLINK-3800,PAYLOAD,2023-06-11 20:38:48,15.08844467,0.0001192,53.2184,6.5083,82.451,277.6617,0.00019169,2.765e-05,0.0,0 STARLINK-3800,1 52379U 22045BA  23162.86028309  .00002765  00000-0  19169-3 0  9998,2 52379  53.2184   6.5083 0001192  82.4510 277.6617 15.08844467 64683,6917.867,95.437,540.556,538.907,0.0
52379.0,STARLINK-3800,PAYLOAD,2023-06-12 06:11:07,15.08840531,0.0001113,53.218,4.7233,82.441,277.6709,8.6135e-05,1.083e-05,0.0,0 STARLINK-3800,1 52379U 22045BA  23163.25772453  .00001083  00000-0  86135-4 0  9998,2 52379  53.2180   4.7233 0001113  82.4410 277.6709 15.08840531 64745,6917.879,95.438,540.514,538.974,0.0
52379.0,STARLINK-3800,PAYLOAD,2023-06-12 20:29:35,15.08839352,0.0001188,53.2182,2.0459,86.7257,273.3871,2.9684e-05,1.85e-06,0.0,0 STARLINK-3800,1 52379U 22045BA  23163.85388548  .00000185  00000-0  29684-4 0  9990,2 52379  53.2182   2.0459 0001188  86.7257 273.3871 15.08839352 64838,6917.882,95.438,540.569,538.926,0.0
52379.0,STARLINK-3800,PAYLOAD,2023-06-12 22:04:58,15.08839691,0.0001204,53.2182,1.7485,86.3449,273.768,3.1597e-05,2.15e-06,0.0,0 STARLINK-3800,1 52379U 22045BA  23163.92012537  .00000215  00000-0  31597-4 0  9990,2 52379  53.2182   1.7485 0001204  86.3449 273.7680 15.08839691 64840,6917.881,95.438,540.579,538.913,0.0
